[{"OBJECT_NAME":"STARLINK-4793","OBJECT_ID":"2022-114BB","EPOCH":"2026-03-09T18:31:58.058400","MEAN_MOTION":15.08848836,"ECCENTRICITY":0.00015566,"INCLINATION":53.216,"RA_OF_ASC_NODE":273.8145,"ARG_OF_PERICENTER":83.5223,"MEAN_ANOMALY":276.5946,"EPHEMERIS_TYPE":0,"CLASSIFICATION_TYPE":"U","NORAD_CAT_ID":53867,"ELEMENT_SET_NO":999,"REV_AT_EPOCH":19326,"BSTAR":5.130695e-5,"MEAN_MOTION_DOT":5.29e-6,"MEAN_MOTION_DDOT":0},{"OBJECT_NAME":"STEP 2","OBJECT_ID":"1994-029A","EPOCH":"2026-03-09T19:35:47.124096","MEAN_MOTION":14.90069818,"ECCENTRICITY":0.0082455,"INCLINATION":81.9356,"RA_OF_ASC_NODE":275.268,"ARG_OF_PERICENTER":225.1907,"MEAN_ANOMALY":134.2589,"EPHEMERIS_TYPE":0,"CLASSIFICATION_TYPE":"U","NORAD_CAT_ID":23105,"ELEMENT_SET_NO":999,"REV_AT_EPOCH":70508,"BSTAR":0.00037800709,"MEAN_MOTION_DOT":3.917e-5,"MEAN_MOTION_DDOT":0}]
